[{"OBJECT_NAME":"STARLINK-5432","OBJECT_ID":"2022-177AE","EPOCH":"2026-03-09T22:00:01.999584","MEAN_MOTION":15.11732935,"ECCENTRICITY":0.00010752,"INCLINATION":43.0007,"RA_OF_ASC_NODE":119.0987,"ARG_OF_PERICENTER":287.7393,"MEAN_ANOMALY":278.5233,"EPHEMERIS_TYPE":0,"CLASSIFICATION_TYPE":"U","NORAD_CAT_ID":54848,"ELEMENT_SET_NO":999,"REV_AT_EPOCH":577,"BSTAR":0.0014997127,"MEAN_MOTION_DOT":0.00025882,"MEAN_MOTION_DDOT":0},{"OBJECT_NAME":"CZ-4 DEB","OBJECT_ID":"2006-046J","EPOCH":"2026-03-09T18:53:15.937728","MEAN_MOTION":15.02015872,"ECCENTRICITY":0.00905092,"INCLINATION":97.813,"RA_OF_ASC_NODE":3.4349,"ARG_OF_PERICENTER":91.2796,"MEAN_ANOMALY":323.9331,"EPHEMERIS_TYPE":0,"CLASSIFICATION_TYPE":"U","NORAD_CAT_ID":35376,"ELEMENT_SET_NO":999,"REV_AT_EPOCH":2538,"BSTAR":0.001704414,"MEAN_MOTION_DOT":0.00024412,"MEAN_MOTION_DDOT":0}]
